[{"OBJECT_NAME":"SJ-11-07","OBJECT_ID":"2014-059A","EPOCH":"2026-03-09T21:45:47.816352","MEAN_MOTION":14.63627905,"ECCENTRICITY":0.00120468,"INCLINATION":98.0026,"RA_OF_ASC_NODE":141.1257,"ARG_OF_PERICENTER":102.2482,"MEAN_ANOMALY":258.0071,"EPHEMERIS_TYPE":0,"CLASSIFICATION_TYPE":"U","NORAD_CAT_ID":40261,"ELEMENT_SET_NO":999,"REV_AT_EPOCH":61039,"BSTAR":0.00017894302,"MEAN_MOTION_DOT":8.85e-6,"MEAN_MOTION_DDOT":0},{"OBJECT_NAME":"CZ-4B DEB","OBJECT_ID":"1999-057N","EPOCH":"2026-03-09T15:46:04.476864","MEAN_MOTION":14.45155029,"ECCENTRICITY":0.0095553,"INCLINATION":98.6419,"RA_OF_ASC_NODE":121.3825,"ARG_OF_PERICENTER":116.8538,"MEAN_ANOMALY":7.754,"EPHEMERIS_TYPE":0,"CLASSIFICATION_TYPE":"U","NORAD_CAT_ID":26126,"ELEMENT_SET_NO":999,"REV_AT_EPOCH":36138,"BSTAR":0.00045853,"MEAN_MOTION_DOT":1.649e-5,"MEAN_MOTION_DDOT":0}]
